QIANFAN-49              
1 62250U 24232P   25232.85454398  .00000068  00000+0  86762-4 0  9994
2 62250  88.9935  52.7349 0014886 157.0904 203.0914 13.50957522 52467
QIANFAN-50              
1 62251U 24232Q   25232.80529873  .00000057  00000+0  69402-4 0  9991
2 62251  88.9940  52.7418 0016488 159.2912 200.8911 13.50964169 52483
QIANFAN-51              
1 62252U 24232R   25232.86292306  .00000083  00000+0  10917-3 0  9991
2 62252  88.9934  52.7369 0013879 161.4208 198.7453 13.50959780 52485
QIANFAN-52              
1 62253U 24232S   25232.89169717  .00000061  00000+0  75841-4 0  9998
2 62253  88.9930  52.6118 0016125 154.9842 205.2094 13.50961055 52574
QIANFAN-53              
1 62254U 24232T   25232.87114609  .00000064  00000+0  79948-4 0  9992
2 62254  88.9937  52.7100 0014973 155.5823 204.6040 13.50965210 52536
QIANFAN-54              
1 62255U 24232U   25232.91228784  .00000056  00000+0  67828-4 0  9993
2 62255  88.9929  52.3941 0002240 150.6996 209.4281 13.50953251 84041
QIANFAN-55              
1 62785U 25016A   25232.86405976  .00000102  00000+0  14016-3 0  9998
2 62785  88.9821 114.9661 0016570 324.0915  35.9121 13.50967384 31817
QIANFAN-56              
1 62786U 25016B   25232.80657084  .00000105  00000+0  14462-3 0  9990
2 62786  88.9794 114.8395 0015314 327.3574  32.6629 13.50959106 31856
